[{"OBJECT_NAME":"PRAETORIAN SDA_608","OBJECT_ID":"2025-203G","EPOCH":"2026-03-09T14:07:41.664288","MEAN_MOTION":13.83886917,"ECCENTRICITY":0.000723,"INCLINATION":81.2974,"RA_OF_ASC_NODE":103.0202,"ARG_OF_PERICENTER":107.803,"MEAN_ANOMALY":252.3916,"EPHEMERIS_TYPE":0,"CLASSIFICATION_TYPE":"U","NORAD_CAT_ID":65571,"ELEMENT_SET_NO":999,"REV_AT_EPOCH":2491,"BSTAR":5.0799e-5,"MEAN_MOTION_DOT":6.8e-7,"MEAN_MOTION_DDOT":0},{"OBJECT_NAME":"SL-8 R\/B","OBJECT_ID":"1976-122B","EPOCH":"2026-03-09T16:58:23.684448","MEAN_MOTION":13.7776503,"ECCENTRICITY":0.00302144,"INCLINATION":82.9534,"RA_OF_ASC_NODE":304.523,"ARG_OF_PERICENTER":357.7031,"MEAN_ANOMALY":2.3983,"EPHEMERIS_TYPE":0,"CLASSIFICATION_TYPE":"U","NORAD_CAT_ID":9613,"ELEMENT_SET_NO":999,"REV_AT_EPOCH":47391,"BSTAR":0.00010316627,"MEAN_MOTION_DOT":1.19e-6,"MEAN_MOTION_DDOT":0}]
